FLOCK 4Q-11             
1 58273U 23174T   26095.23758017  .00029832  00000+0  59723-3 0  9999
2 58273  97.3877 182.3454 0006743  74.2693 285.9300 15.46686585134308
FLOCK 4Q-36             
1 58274U 23174U   26095.23860038  .00046679  00000+0  74504-3 0  9999
2 58274  97.3853 185.2487 0006697  58.8127 301.3782 15.53046876134497
FLOCK 4Q-12             
1 58275U 23174V   26095.20493568  .00123944  00000+0  16761-2 0  9998
2 58275  97.3847 185.2003 0002740  51.1586 308.9914 15.57306565134516
FLOCK 4Q-28             
1 58280U 23174AA  26095.23055071  .00040557  00000+0  69914-3 0  9997
2 58280  97.3879 184.2770 0005806  65.2051 294.9805 15.50924558134420
FLOCK 4Q-27             
1 58282U 23174AC  26095.16260516  .00037294  00000+0  64521-3 0  9996
2 58282  97.3820 183.7232 0005368  64.0150 296.1654 15.50843041134428
FLOCK 4Q-26             
1 58284U 23174AE  26095.23362028  .00042536  00000+0  68505-3 0  9998
2 58284  97.3875 185.3268 0006333  62.9851 297.2047 15.52819528134495
FLOCK 4Q-31             
1 58285U 23174AF  26095.20576417  .00047999  00000+0  77680-3 0  9997
2 58285  97.3917 184.9424 0006322  66.6901 293.5017 15.52657461134444
FLOCK 4Q-30             
1 58286U 23174AG  26095.19008583  .00044434  00000+0  71429-3 0  9996
2 58286  97.3931 185.1224 0004938  68.2790 291.8989 15.52870756134451
PELICAN-1               
1 58296U 23174AS  26095.20084282  .00169203  00000+0  17266-2 0  9999
2 58296  97.4004 191.2079 0009047 220.1647 139.8944 15.64484982134701
FLOCK 4Q-29             
1 58304U 23174BA  26095.24008745  .00041910  00000+0  70825-3 0  9998
2 58304  97.3923 184.7120 0005716  58.0953 302.0855 15.51478751134439
FLOCK 4Q-22             
1 58306U 23174BC  26095.21655528  .00049381  00000+0  74738-3 0  9991
2 58306  97.3816 184.9507 0004430  59.2044 300.9645 15.54519114134514
FLOCK 4Q-23             
1 58307U 23174BD  26095.24538613  .00046864  00000+0  62548-3 0  9999
2 58307  97.3934 186.7225 0005065  53.2202 306.9517 15.57941906134568
FLOCK 4Q-33             
1 58308U 23174BE  26095.22037989  .00042749  00000+0  67546-3 0  9999
2 58308  97.3858 184.8613 0005839  47.2951 312.8793 15.53352740134499
FLOCK 4Q-35             
1 58309U 23174BF  26095.22568795  .00042873  00000+0  70371-3 0  9992
2 58309  97.3884 184.9961 0005609  61.1321 299.0494 15.52292652134473
FLOCK 4Q-7              
1 58318U 23174BQ  26095.21414661  .00040633  00000+0  69274-3 0  9995
2 58318  97.3905 184.4807 0006178  50.4119 309.7677 15.51233550134427
FLOCK 4Q-2              
1 58320U 23174BS  26095.28280323  .00030670  00000+0  61660-3 0  9992
2 58320  97.3833 182.1708 0006439  54.8032 305.3820 15.46561138134328
