[{"OBJECT_NAME":"FLOCK 4Q-11","OBJECT_ID":"2023-174T","EPOCH":"2026-04-05T05:42:06.926688","MEAN_MOTION":15.46686585,"ECCENTRICITY":0.0006743,"INCLINATION":97.3877,"RA_OF_ASC_NODE":182.3454,"ARG_OF_PERICENTER":74.2693,"MEAN_ANOMALY":285.93,"EPHEMERIS_TYPE":0,"CLASSIFICATION_TYPE":"U","NORAD_CAT_ID":58273,"ELEMENT_SET_NO":999,"REV_AT_EPOCH":13430,"BSTAR":0.00059722644,"MEAN_MOTION_DOT":0.00029832,"MEAN_MOTION_DDOT":0},{"OBJECT_NAME":"FLOCK 4Q-36","OBJECT_ID":"2023-174U","EPOCH":"2026-04-05T05:43:35.072832","MEAN_MOTION":15.53046876,"ECCENTRICITY":0.00066976,"INCLINATION":97.3853,"RA_OF_ASC_NODE":185.2487,"ARG_OF_PERICENTER":58.8127,"MEAN_ANOMALY":301.3782,"EPHEMERIS_TYPE":0,"CLASSIFICATION_TYPE":"U","NORAD_CAT_ID":58274,"ELEMENT_SET_NO":999,"REV_AT_EPOCH":13449,"BSTAR":0.0007450425,"MEAN_MOTION_DOT":0.00046679,"MEAN_MOTION_DDOT":0},{"OBJECT_NAME":"FLOCK 4Q-12","OBJECT_ID":"2023-174V","EPOCH":"2026-04-05T04:55:06.442752","MEAN_MOTION":15.57306565,"ECCENTRICITY":0.00027402,"INCLINATION":97.3847,"RA_OF_ASC_NODE":185.2003,"ARG_OF_PERICENTER":51.1586,"MEAN_ANOMALY":308.9914,"EPHEMERIS_TYPE":0,"CLASSIFICATION_TYPE":"U","NORAD_CAT_ID":58275,"ELEMENT_SET_NO":999,"REV_AT_EPOCH":13451,"BSTAR":0.0016760622,"MEAN_MOTION_DOT":0.00123944,"MEAN_MOTION_DDOT":0},{"OBJECT_NAME":"FLOCK 4Q-28","OBJECT_ID":"2023-174AA","EPOCH":"2026-04-05T05:31:59.581344","MEAN_MOTION":15.50924558,"ECCENTRICITY":0.00058066,"INCLINATION":97.3879,"RA_OF_ASC_NODE":184.277,"ARG_OF_PERICENTER":65.2051,"MEAN_ANOMALY":294.9805,"EPHEMERIS_TYPE":0,"CLASSIFICATION_TYPE":"U","NORAD_CAT_ID":58280,"ELEMENT_SET_NO":999,"REV_AT_EPOCH":13442,"BSTAR":0.00069913712,"MEAN_MOTION_DOT":0.00040557,"MEAN_MOTION_DDOT":0},{"OBJECT_NAME":"FLOCK 4Q-27","OBJECT_ID":"2023-174AC","EPOCH":"2026-04-05T03:54:09.085824","MEAN_MOTION":15.50843041,"ECCENTRICITY":0.00053683,"INCLINATION":97.382,"RA_OF_ASC_NODE":183.7232,"ARG_OF_PERICENTER":64.015,"MEAN_ANOMALY":296.1654,"EPHEMERIS_TYPE":0,"CLASSIFICATION_TYPE":"U","NORAD_CAT_ID":58282,"ELEMENT_SET_NO":999,"REV_AT_EPOCH":13442,"BSTAR":0.00064520942,"MEAN_MOTION_DOT":0.00037294,"MEAN_MOTION_DDOT":0},{"OBJECT_NAME":"FLOCK 4Q-26","OBJECT_ID":"2023-174AE","EPOCH":"2026-04-05T05:36:24.792192","MEAN_MOTION":15.52819528,"ECCENTRICITY":0.00063331,"INCLINATION":97.3875,"RA_OF_ASC_NODE":185.3268,"ARG_OF_PERICENTER":62.9851,"MEAN_ANOMALY":297.2047,"EPHEMERIS_TYPE":0,"CLASSIFICATION_TYPE":"U","NORAD_CAT_ID":58284,"ELEMENT_SET_NO":999,"REV_AT_EPOCH":13449,"BSTAR":0.00068504659,"MEAN_MOTION_DOT":0.00042536,"MEAN_MOTION_DDOT":0},{"OBJECT_NAME":"FLOCK 4Q-31","OBJECT_ID":"2023-174AF","EPOCH":"2026-04-05T04:56:18.024288","MEAN_MOTION":15.52657461,"ECCENTRICITY":0.00063229,"INCLINATION":97.3917,"RA_OF_ASC_NODE":184.9424,"ARG_OF_PERICENTER":66.6901,"MEAN_ANOMALY":293.5017,"EPHEMERIS_TYPE":0,"CLASSIFICATION_TYPE":"U","NORAD_CAT_ID":58285,"ELEMENT_SET_NO":999,"REV_AT_EPOCH":13444,"BSTAR":0.00077679875,"MEAN_MOTION_DOT":0.00047999,"MEAN_MOTION_DDOT":0},{"OBJECT_NAME":"FLOCK 4Q-30","OBJECT_ID":"2023-174AG","EPOCH":"2026-04-05T04:33:43.415712","MEAN_MOTION":15.52870756,"ECCENTRICITY":0.00049385,"INCLINATION":97.3931,"RA_OF_ASC_NODE":185.1224,"ARG_OF_PERICENTER":68.279,"MEAN_ANOMALY":291.8989,"EPHEMERIS_TYPE":0,"CLASSIFICATION_TYPE":"U","NORAD_CAT_ID":58286,"ELEMENT_SET_NO":999,"REV_AT_EPOCH":13445,"BSTAR":0.00071428665,"MEAN_MOTION_DOT":0.00044434,"MEAN_MOTION_DDOT":0},{"OBJECT_NAME":"PELICAN-1","OBJECT_ID":"2023-174AS","EPOCH":"2026-04-05T04:49:12.819648","MEAN_MOTION":15.64484982,"ECCENTRICITY":0.00090473,"INCLINATION":97.4004,"RA_OF_ASC_NODE":191.2079,"ARG_OF_PERICENTER":220.1647,"MEAN_ANOMALY":139.8944,"EPHEMERIS_TYPE":0,"CLASSIFICATION_TYPE":"U","NORAD_CAT_ID":58296,"ELEMENT_SET_NO":999,"REV_AT_EPOCH":13470,"BSTAR":0.0017266498,"MEAN_MOTION_DOT":0.00169203,"MEAN_MOTION_DDOT":0},{"OBJECT_NAME":"FLOCK 4Q-29","OBJECT_ID":"2023-174BA","EPOCH":"2026-04-05T05:45:43.555680","MEAN_MOTION":15.51478751,"ECCENTRICITY":0.00057161,"INCLINATION":97.3923,"RA_OF_ASC_NODE":184.712,"ARG_OF_PERICENTER":58.0953,"MEAN_ANOMALY":302.0855,"EPHEMERIS_TYPE":0,"CLASSIFICATION_TYPE":"U","NORAD_CAT_ID":58304,"ELEMENT_SET_NO":999,"REV_AT_EPOCH":13443,"BSTAR":0.00070825091,"MEAN_MOTION_DOT":0.0004191,"MEAN_MOTION_DDOT":0},{"OBJECT_NAME":"FLOCK 4Q-22","OBJECT_ID":"2023-174BC","EPOCH":"2026-04-05T05:11:50.376192","MEAN_MOTION":15.54519114,"ECCENTRICITY":0.00044302,"INCLINATION":97.3816,"RA_OF_ASC_NODE":184.9507,"ARG_OF_PERICENTER":59.2044,"MEAN_ANOMALY":300.9645,"EPHEMERIS_TYPE":0,"CLASSIFICATION_TYPE":"U","NORAD_CAT_ID":58306,"ELEMENT_SET_NO":999,"REV_AT_EPOCH":13451,"BSTAR":0.00074738422,"MEAN_MOTION_DOT":0.00049381,"MEAN_MOTION_DDOT":0},{"OBJECT_NAME":"FLOCK 4Q-23","OBJECT_ID":"2023-174BD","EPOCH":"2026-04-05T05:53:21.361632","MEAN_MOTION":15.57941906,"ECCENTRICITY":0.00050652,"INCLINATION":97.3934,"RA_OF_ASC_NODE":186.7225,"ARG_OF_PERICENTER":53.2202,"MEAN_ANOMALY":306.9517,"EPHEMERIS_TYPE":0,"CLASSIFICATION_TYPE":"U","NORAD_CAT_ID":58307,"ELEMENT_SET_NO":999,"REV_AT_EPOCH":13456,"BSTAR":0.00062547868,"MEAN_MOTION_DOT":0.00046864,"MEAN_MOTION_DDOT":0},{"OBJECT_NAME":"FLOCK 4Q-33","OBJECT_ID":"2023-174BE","EPOCH":"2026-04-05T05:17:20.822496","MEAN_MOTION":15.5335274,"ECCENTRICITY":0.00058398,"INCLINATION":97.3858,"RA_OF_ASC_NODE":184.8613,"ARG_OF_PERICENTER":47.2951,"MEAN_ANOMALY":312.8793,"EPHEMERIS_TYPE":0,"CLASSIFICATION_TYPE":"U","NORAD_CAT_ID":58308,"ELEMENT_SET_NO":999,"REV_AT_EPOCH":13449,"BSTAR":0.00067545771,"MEAN_MOTION_DOT":0.00042749,"MEAN_MOTION_DDOT":0},{"OBJECT_NAME":"FLOCK 4Q-35","OBJECT_ID":"2023-174BF","EPOCH":"2026-04-05T05:24:59.438880","MEAN_MOTION":15.52292652,"ECCENTRICITY":0.00056091,"INCLINATION":97.3884,"RA_OF_ASC_NODE":184.9961,"ARG_OF_PERICENTER":61.1321,"MEAN_ANOMALY":299.0494,"EPHEMERIS_TYPE":0,"CLASSIFICATION_TYPE":"U","NORAD_CAT_ID":58309,"ELEMENT_SET_NO":999,"REV_AT_EPOCH":13447,"BSTAR":0.00070370813,"MEAN_MOTION_DOT":0.00042873,"MEAN_MOTION_DDOT":0},{"OBJECT_NAME":"FLOCK 4Q-7","OBJECT_ID":"2023-174BQ","EPOCH":"2026-04-05T05:08:22.267104","MEAN_MOTION":15.5123355,"ECCENTRICITY":0.00061788,"INCLINATION":97.3905,"RA_OF_ASC_NODE":184.4807,"ARG_OF_PERICENTER":50.4119,"MEAN_ANOMALY":309.7677,"EPHEMERIS_TYPE":0,"CLASSIFICATION_TYPE":"U","NORAD_CAT_ID":58318,"ELEMENT_SET_NO":999,"REV_AT_EPOCH":13442,"BSTAR":0.00069274469,"MEAN_MOTION_DOT":0.00040633,"MEAN_MOTION_DDOT":0},{"OBJECT_NAME":"FLOCK 4Q-2","OBJECT_ID":"2023-174BS","EPOCH":"2026-04-05T06:47:14.199072","MEAN_MOTION":15.46561138,"ECCENTRICITY":0.00064397,"INCLINATION":97.3833,"RA_OF_ASC_NODE":182.1708,"ARG_OF_PERICENTER":54.8032,"MEAN_ANOMALY":305.382,"EPHEMERIS_TYPE":0,"CLASSIFICATION_TYPE":"U","NORAD_CAT_ID":58320,"ELEMENT_SET_NO":999,"REV_AT_EPOCH":13432,"BSTAR":0.00061659684,"MEAN_MOTION_DOT":0.0003067,"MEAN_MOTION_DDOT":0}]
